[{"OBJECT_NAME":"INTELSAT 25 (IS-25)","OBJECT_ID":"2008-034A","EPOCH":"2026-04-23T01:58:38.717184","MEAN_MOTION":0.99965107,"ECCENTRICITY":0.00021655,"INCLINATION":2.567,"RA_OF_ASC_NODE":80.9425,"ARG_OF_PERICENTER":274.6153,"MEAN_ANOMALY":207.906,"EPHEMERIS_TYPE":0,"CLASSIFICATION_TYPE":"U","NORAD_CAT_ID":33153,"ELEMENT_SET_NO":999,"REV_AT_EPOCH":6514,"BSTAR":0,"MEAN_MOTION_DOT":-2.78e-6,"MEAN_MOTION_DDOT":0},{"OBJECT_NAME":"GALAXY 19 (G-19)","OBJECT_ID":"2008-045A","EPOCH":"2026-04-27T06:40:08.560704","MEAN_MOTION":1.00272017,"ECCENTRICITY":0.0003359,"INCLINATION":0.0193,"RA_OF_ASC_NODE":249.1154,"ARG_OF_PERICENTER":163.8217,"MEAN_ANOMALY":165.3586,"EPHEMERIS_TYPE":0,"CLASSIFICATION_TYPE":"U","NORAD_CAT_ID":33376,"ELEMENT_SET_NO":999,"REV_AT_EPOCH":6439,"BSTAR":0,"MEAN_MOTION_DOT":-1.49e-6,"MEAN_MOTION_DDOT":0},{"OBJECT_NAME":"FM-5","OBJECT_ID":"2009-034A","EPOCH":"2026-04-27T04:43:38.701344","MEAN_MOTION":1.00272405,"ECCENTRICITY":6.082e-5,"INCLINATION":0.0148,"RA_OF_ASC_NODE":266.3053,"ARG_OF_PERICENTER":19.2556,"MEAN_ANOMALY":274.3925,"EPHEMERIS_TYPE":0,"CLASSIFICATION_TYPE":"U","NORAD_CAT_ID":35493,"ELEMENT_SET_NO":999,"REV_AT_EPOCH":4613,"BSTAR":0,"MEAN_MOTION_DOT":-2.1e-6,"MEAN_MOTION_DDOT":0},{"OBJECT_NAME":"INTELSAT 14 (IS-14)","OBJECT_ID":"2009-064A","EPOCH":"2026-04-27T01:19:57.050688","MEAN_MOTION":1.00272158,"ECCENTRICITY":0.00025468,"INCLINATION":0.0129,"RA_OF_ASC_NODE":66.3268,"ARG_OF_PERICENTER":331.8072,"MEAN_ANOMALY":151.902,"EPHEMERIS_TYPE":0,"CLASSIFICATION_TYPE":"U","NORAD_CAT_ID":36097,"ELEMENT_SET_NO":999,"REV_AT_EPOCH":6009,"BSTAR":0,"MEAN_MOTION_DOT":-2.84e-6,"MEAN_MOTION_DDOT":0},{"OBJECT_NAME":"INTELSAT 15 (IS-15)","OBJECT_ID":"2009-067A","EPOCH":"2026-04-27T00:14:25.836000","MEAN_MOTION":1.0027181,"ECCENTRICITY":0.00022729,"INCLINATION":0.0384,"RA_OF_ASC_NODE":84.8896,"ARG_OF_PERICENTER":311.8309,"MEAN_ANOMALY":267.0457,"EPHEMERIS_TYPE":0,"CLASSIFICATION_TYPE":"U","NORAD_CAT_ID":36106,"ELEMENT_SET_NO":999,"REV_AT_EPOCH":4071,"BSTAR":0,"MEAN_MOTION_DOT":-1.96e-6,"MEAN_MOTION_DDOT":0},{"OBJECT_NAME":"DIRECTV 12","OBJECT_ID":"2009-075A","EPOCH":"2026-04-27T03:38:02.458176","MEAN_MOTION":1.00272158,"ECCENTRICITY":2.568e-5,"INCLINATION":0.0275,"RA_OF_ASC_NODE":70.9499,"ARG_OF_PERICENTER":336.5826,"MEAN_ANOMALY":119.3926,"EPHEMERIS_TYPE":0,"CLASSIFICATION_TYPE":"U","NORAD_CAT_ID":36131,"ELEMENT_SET_NO":999,"REV_AT_EPOCH":4604,"BSTAR":0,"MEAN_MOTION_DOT":-1.14e-6,"MEAN_MOTION_DDOT":0},{"OBJECT_NAME":"INTELSAT 16 (IS-16)","OBJECT_ID":"2010-006A","EPOCH":"2026-04-27T05:15:09.319104","MEAN_MOTION":1.00270665,"ECCENTRICITY":0.00021396,"INCLINATION":0.0157,"RA_OF_ASC_NODE":280.706,"ARG_OF_PERICENTER":145.3737,"MEAN_ANOMALY":151.7231,"EPHEMERIS_TYPE":0,"CLASSIFICATION_TYPE":"U","NORAD_CAT_ID":36397,"ELEMENT_SET_NO":999,"REV_AT_EPOCH":5914,"BSTAR":0,"MEAN_MOTION_DOT":-2.55e-6,"MEAN_MOTION_DDOT":0},{"OBJECT_NAME":"XM-5","OBJECT_ID":"2010-053A","EPOCH":"2026-04-27T06:06:24.100704","MEAN_MOTION":1.00276059,"ECCENTRICITY":0.00035482,"INCLINATION":0.0649,"RA_OF_ASC_NODE":270.9565,"ARG_OF_PERICENTER":281.1451,"MEAN_ANOMALY":359.5557,"EPHEMERIS_TYPE":0,"CLASSIFICATION_TYPE":"U","NORAD_CAT_ID":37185,"ELEMENT_SET_NO":999,"REV_AT_EPOCH":5697,"BSTAR":0,"MEAN_MOTION_DOT":-3.4e-7,"MEAN_MOTION_DDOT":0},{"OBJECT_NAME":"INTELSAT 17 (IS-17)","OBJECT_ID":"2010-065B","EPOCH":"2026-04-27T04:16:38.848224","MEAN_MOTION":1.00271571,"ECCENTRICITY":0.00027999,"INCLINATION":0.0187,"RA_OF_ASC_NODE":169.8847,"ARG_OF_PERICENTER":243.3197,"MEAN_ANOMALY":292.1276,"EPHEMERIS_TYPE":0,"CLASSIFICATION_TYPE":"U","NORAD_CAT_ID":37238,"ELEMENT_SET_NO":999,"REV_AT_EPOCH":5273,"BSTAR":0,"MEAN_MOTION_DOT":-1.2e-7,"MEAN_MOTION_DDOT":0},{"OBJECT_NAME":"INTELSAT 28 (IS-28)","OBJECT_ID":"2011-016A","EPOCH":"2026-04-27T01:23:41.692416","MEAN_MOTION":1.00270802,"ECCENTRICITY":0.00041925,"INCLINATION":1.6758,"RA_OF_ASC_NODE":83.2093,"ARG_OF_PERICENTER":317.3861,"MEAN_ANOMALY":163.6671,"EPHEMERIS_TYPE":0,"CLASSIFICATION_TYPE":"U","NORAD_CAT_ID":37392,"ELEMENT_SET_NO":999,"REV_AT_EPOCH":5277,"BSTAR":0,"MEAN_MOTION_DOT":-2.34e-6,"MEAN_MOTION_DDOT":0},{"OBJECT_NAME":"INTELSAT 18 (IS-18)","OBJECT_ID":"2011-056A","EPOCH":"2026-04-27T06:48:21.971232","MEAN_MOTION":1.00270693,"ECCENTRICITY":0.00019816,"INCLINATION":0.0166,"RA_OF_ASC_NODE":244.2398,"ARG_OF_PERICENTER":149.6355,"MEAN_ANOMALY":103.4907,"EPHEMERIS_TYPE":0,"CLASSIFICATION_TYPE":"U","NORAD_CAT_ID":37834,"ELEMENT_SET_NO":999,"REV_AT_EPOCH":5330,"BSTAR":0,"MEAN_MOTION_DOT":0,"MEAN_MOTION_DDOT":0},{"OBJECT_NAME":"INTELSAT 22 (IS-22)","OBJECT_ID":"2012-011A","EPOCH":"2026-04-27T01:59:09.598272","MEAN_MOTION":1.00270693,"ECCENTRICITY":0.00017603,"INCLINATION":0.0221,"RA_OF_ASC_NODE":106.9851,"ARG_OF_PERICENTER":294.0083,"MEAN_ANOMALY":275.9693,"EPHEMERIS_TYPE":0,"CLASSIFICATION_TYPE":"U","NORAD_CAT_ID":38098,"ELEMENT_SET_NO":999,"REV_AT_EPOCH":667,"BSTAR":0,"MEAN_MOTION_DOT":-6.9e-7,"MEAN_MOTION_DDOT":0},{"OBJECT_NAME":"INTELSAT 19 (IS-19)","OBJECT_ID":"2012-030A","EPOCH":"2026-04-27T07:16:32.335392","MEAN_MOTION":1.00272609,"ECCENTRICITY":0.00031127,"INCLINATION":0.0208,"RA_OF_ASC_NODE":260.2897,"ARG_OF_PERICENTER":136.4113,"MEAN_ANOMALY":93.7248,"EPHEMERIS_TYPE":0,"CLASSIFICATION_TYPE":"U","NORAD_CAT_ID":38356,"ELEMENT_SET_NO":999,"REV_AT_EPOCH":4994,"BSTAR":0,"MEAN_MOTION_DOT":-6.6e-7,"MEAN_MOTION_DDOT":0},{"OBJECT_NAME":"INTELSAT 20 (IS-20)","OBJECT_ID":"2012-043A","EPOCH":"2026-04-26T21:45:38.560320","MEAN_MOTION":1.00271794,"ECCENTRICITY":0.00021187,"INCLINATION":0.0202,"RA_OF_ASC_NODE":146.6474,"ARG_OF_PERICENTER":32.4241,"MEAN_ANOMALY":70.7285,"EPHEMERIS_TYPE":0,"CLASSIFICATION_TYPE":"U","NORAD_CAT_ID":38740,"ELEMENT_SET_NO":999,"REV_AT_EPOCH":5023,"BSTAR":0,"MEAN_MOTION_DOT":-3.5e-7,"MEAN_MOTION_DDOT":0},{"OBJECT_NAME":"INTELSAT 21 (IS-21)","OBJECT_ID":"2012-045A","EPOCH":"2026-04-27T06:33:36.692640","MEAN_MOTION":1.00270877,"ECCENTRICITY":0.00020895,"INCLINATION":0.0597,"RA_OF_ASC_NODE":79.4238,"ARG_OF_PERICENTER":329.633,"MEAN_ANOMALY":206.603,"EPHEMERIS_TYPE":0,"CLASSIFICATION_TYPE":"U","NORAD_CAT_ID":38749,"ELEMENT_SET_NO":999,"REV_AT_EPOCH":5001,"BSTAR":0,"MEAN_MOTION_DOT":-2.95e-6,"MEAN_MOTION_DDOT":0},{"OBJECT_NAME":"INTELSAT 23 (IS-23)","OBJECT_ID":"2012-057A","EPOCH":"2026-04-27T01:17:42.266688","MEAN_MOTION":1.00275519,"ECCENTRICITY":3.099e-5,"INCLINATION":0.0196,"RA_OF_ASC_NODE":265.2605,"ARG_OF_PERICENTER":345.5296,"MEAN_ANOMALY":290.6693,"EPHEMERIS_TYPE":0,"CLASSIFICATION_TYPE":"U","NORAD_CAT_ID":38867,"ELEMENT_SET_NO":999,"REV_AT_EPOCH":4944,"BSTAR":0,"MEAN_MOTION_DOT":-2.95e-6,"MEAN_MOTION_DDOT":0},{"OBJECT_NAME":"FM-6","OBJECT_ID":"2013-058A","EPOCH":"2026-04-27T00:59:36.502944","MEAN_MOTION":1.00282134,"ECCENTRICITY":7.291e-5,"INCLINATION":0.0163,"RA_OF_ASC_NODE":249.7721,"ARG_OF_PERICENTER":84.5423,"MEAN_ANOMALY":139.3071,"EPHEMERIS_TYPE":0,"CLASSIFICATION_TYPE":"U","NORAD_CAT_ID":39360,"ELEMENT_SET_NO":999,"REV_AT_EPOCH":4556,"BSTAR":0,"MEAN_MOTION_DOT":-2.8e-7,"MEAN_MOTION_DDOT":0}]
